{"type": "FeatureCollection", "features": [ {"type": "Feature", "properties": {"norad_id": 66627, "name": "STARLINK-35904", "group": "last-30-days", "lat": -52.762729002981395, "lon": 104.68959774988046, "alt_km": 378.12232655037405, "timestamp": "2025-12-09T05:43:19.510454+00:00", "meta": {"OBJECT_NAME": "STARLINK-35904", "OBJECT_ID": "2025-271L", "EPOCH": "2025-12-08T20:00:01.999008", "MEAN_MOTION": 15.66920541, "ECCENTRICITY": 0.0001024, "INCLINATION": 53.1591, "RA_OF_ASC_NODE": 206.126, "ARG_OF_PERICENTER": 107.2521, "MEAN_ANOMALY": 32.0612, "EPHEMERIS_TYPE": 0, "CLASSIFICATION_TYPE": "U", "NORAD_CAT_ID": 66627, "ELEMENT_SET_NO": 999, "REV_AT_EPOCH": 345, "BSTAR": -0.020546, "MEAN_MOTION_DOT": -0.01960681, "MEAN_MOTION_DDOT": 0}, "tle": {"line1": "1 66627U 25271L   25342.83335647 -.01960681  00000+0 -20546-1 0  9999", "line2": "2 66627  53.1591 206.1260 0001024 107.2521  32.0612 15.66920541  3450"}}, "geometry": {"type": "Point", "coordinates": [104.68959774988046, -52.762729002981395]}}, {"type": "Feature", "properties": {"norad_id": 66628, "name": "STARLINK-35862", "group": "last-30-days", "lat": -52.97200090361974, "lon": 107.82896478687769, "alt_km": 378.2038065702254, "timestamp": "2025-12-09T05:43:19.510466+00:00", "meta": {"OBJECT_NAME": "STARLINK-35862", "OBJECT_ID": "2025-271M", "EPOCH": "2025-12-08T20:00:01.999008", "MEAN_MOTION": 15.66964128, "ECCENTRICITY": 0.0001156, "INCLINATION": 53.159, "RA_OF_ASC_NODE": 206.1223, "ARG_OF_PERICENTER": 100.4438, "MEAN_ANOMALY": 40.742, "EPHEMERIS_TYPE": 0, "CLASSIFICATION_TYPE": "U", "NORAD_CAT_ID": 66628, "ELEMENT_SET_NO": 999, "REV_AT_EPOCH": 361, "BSTAR": -0.02088, "MEAN_MOTION_DOT": -0.0199191, "MEAN_MOTION_DDOT": 0}, "tle": {"line1": "1 66628U 25271M   25342.83335647 -.01991910  00000+0 -20880-1 0  9990", "line2": "2 66628  53.1590 206.1223 0001156 100.4438  40.7420 15.66964128  3617"}}, "geometry": {"type": "Point", "coordinates": [107.82896478687769, -52.97200090361974]}}, {"type": "Feature", "properties": {"norad_id": 66629, "name": "STARLINK-35956", "group": "last-30-days", "lat": -53.0980549425645, "lon": 110.99995138208669, "alt_km": 378.21675770388447, "timestamp": "2025-12-09T05:43:19.510479+00:00", "meta": {"OBJECT_NAME": "STARLINK-35956", "OBJECT_ID": "2025-271N", "EPOCH": "2025-12-08T20:00:01.999008", "MEAN_MOTION": 15.66969541, "ECCENTRICITY": 0.0001146, "INCLINATION": 53.1591, "RA_OF_ASC_NODE": 206.1187, "ARG_OF_PERICENTER": 96.9588, "MEAN_ANOMALY": 46.142, "EPHEMERIS_TYPE": 0, "CLASSIFICATION_TYPE": "U", "NORAD_CAT_ID": 66629, "ELEMENT_SET_NO": 999, "REV_AT_EPOCH": 361, "BSTAR": -0.020958, "MEAN_MOTION_DOT": -0.01998823, "MEAN_MOTION_DDOT": 0}, "tle": {"line1": "1 66629U 25271N   25342.83335647 -.01998823  00000+0 -20958-1 0  9997", "line2": "2 66629  53.1591 206.1187 0001146  96.9588  46.1420 15.66969541  3616"}}, "geometry": {"type": "Point", "coordinates": [110.99995138208669, -53.0980549425645]}}, {"type": "Feature", "properties": {"norad_id": 66630, "name": "STARLINK-35949", "group": "last-30-days", "lat": -53.13916263836052, "lon": 114.18035414084498, "alt_km": 378.19997397609313, "timestamp": "2025-12-09T05:43:19.510489+00:00", "meta": {"OBJECT_NAME": "STARLINK-35949", "OBJECT_ID": "2025-271P", "EPOCH": "2025-12-08T20:00:01.999008", "MEAN_MOTION": 15.66968509, "ECCENTRICITY": 0.0001107, "INCLINATION": 53.1591, "RA_OF_ASC_NODE": 206.114, "ARG_OF_PERICENTER": 98.0486, "MEAN_ANOMALY": 46.9704, "EPHEMERIS_TYPE": 0, "CLASSIFICATION_TYPE": "U", "NORAD_CAT_ID": 66630, "ELEMENT_SET_NO": 999, "REV_AT_EPOCH": 361, "BSTAR": -0.020972, "MEAN_MOTION_DOT": -0.01999956, "MEAN_MOTION_DDOT": 0}, "tle": {"line1": "1 66630U 25271P   25342.83335647 -.01999956  00000+0 -20972-1 0  9993", "line2": "2 66630  53.1591 206.1140 0001107  98.0486  46.9704 15.66968509  3610"}}, "geometry": {"type": "Point", "coordinates": [114.18035414084498, -53.13916263836052]}}, {"type": "Feature", "properties": {"norad_id": 66631, "name": "STARLINK-35965", "group": "last-30-days", "lat": -53.09538380454829, "lon": 117.36333250684828, "alt_km": 378.1778918495629, "timestamp": "2025-12-09T05:43:19.510499+00:00", "meta": {"OBJECT_NAME": "STARLINK-35965", "OBJECT_ID": "2025-271Q", "EPOCH": "2025-12-08T20:00:01.999008", "MEAN_MOTION": 15.66968535, "ECCENTRICITY": 0.0001086, "INCLINATION": 53.1593, "RA_OF_ASC_NODE": 206.1103, "ARG_OF_PERICENTER": 98.3392, "MEAN_ANOMALY": 48.5943, "EPHEMERIS_TYPE": 0, "CLASSIFICATION_TYPE": "U", "NORAD_CAT_ID": 66631, "ELEMENT_SET_NO": 999, "REV_AT_EPOCH": 361, "BSTAR": -0.02093, "MEAN_MOTION_DOT": -0.01996354, "MEAN_MOTION_DDOT": 0}, "tle": {"line1": "1 66631U 25271Q   25342.83335647 -.01996354  00000+0 -20930-1 0  9997", "line2": "2 66631  53.1593 206.1103 0001086  98.3392  48.5943 15.66968535  3619"}}, "geometry": {"type": "Point", "coordinates": [117.36333250684828, -53.09538380454829]}}, {"type": "Feature", "properties": {"norad_id": 66632, "name": "STARLINK-35973", "group": "last-30-days", "lat": -52.9666161774908, "lon": 120.53278933690363, "alt_km": 378.2207162784707, "timestamp": "2025-12-09T05:43:19.510509+00:00", "meta": {"OBJECT_NAME": "STARLINK-35973", "OBJECT_ID": "2025-271R", "EPOCH": "2025-12-08T20:00:01.999008", "MEAN_MOTION": 15.66966154, "ECCENTRICITY": 0.0001147, "INCLINATION": 53.1593, "RA_OF_ASC_NODE": 206.1065, "ARG_OF_PERICENTER": 94.8792, "MEAN_ANOMALY": 53.9735, "EPHEMERIS_TYPE": 0, "CLASSIFICATION_TYPE": "U", "NORAD_CAT_ID": 66632, "ELEMENT_SET_NO": 999, "REV_AT_EPOCH": 355, "BSTAR": -0.020906, "MEAN_MOTION_DOT": -0.01994219, "MEAN_MOTION_DDOT": 0}, "tle": {"line1": "1 66632U 25271R   25342.83335647 -.01994219  00000+0 -20906-1 0  9999", "line2": "2 66632  53.1593 206.1065 0001147  94.8792  53.9735 15.66966154  3557"}}, "geometry": {"type": "Point", "coordinates": [120.53278933690363, -52.9666161774908]}}, {"type": "Feature", "properties": {"norad_id": 66633, "name": "STARLINK-35948", "group": "last-30-days", "lat": -52.75364957206234, "lon": 123.67509553045964, "alt_km": 378.1774245872457, "timestamp": "2025-12-09T05:43:19.510519+00:00", "meta": {"OBJECT_NAME": "STARLINK-35948", "OBJECT_ID": "2025-271S", "EPOCH": "2025-12-08T20:00:01.999008", "MEAN_MOTION": 15.66965879, "ECCENTRICITY": 0.0001086, "INCLINATION": 53.1589, "RA_OF_ASC_NODE": 206.1017, "ARG_OF_PERICENTER": 96.6589, "MEAN_ANOMALY": 54.1105, "EPHEMERIS_TYPE": 0, "CLASSIFICATION_TYPE": "U", "NORAD_CAT_ID": 66633, "ELEMENT_SET_NO": 999, "REV_AT_EPOCH": 361, "BSTAR": -0.020917, "MEAN_MOTION_DOT": -0.01995154, "MEAN_MOTION_DDOT": 0}, "tle": {"line1": "1 66633U 25271S   25342.83335647 -.01995154  00000+0 -20917-1 0  9991", "line2": "2 66633  53.1589 206.1017 0001086  96.6589  54.1105 15.66965879  3610"}}, "geometry": {"type": "Point", "coordinates": [123.67509553045964, -52.75364957206234]}}, {"type": "Feature", "properties": {"norad_id": 66634, "name": "STARLINK-35967", "group": "last-30-days", "lat": -52.458570697522276, "lon": 126.78448229098586, "alt_km": 378.19297718359485, "timestamp": "2025-12-09T05:43:19.510529+00:00", "meta": {"OBJECT_NAME": "STARLINK-35967", "OBJECT_ID": "2025-271T", "EPOCH": "2025-12-08T20:00:01.999008", "MEAN_MOTION": 15.66969088, "ECCENTRICITY": 0.0001111, "INCLINATION": 53.1591, "RA_OF_ASC_NODE": 206.0973, "ARG_OF_PERICENTER": 96.9451, "MEAN_ANOMALY": 55.7413, "EPHEMERIS_TYPE": 0, "CLASSIFICATION_TYPE": "U", "NORAD_CAT_ID": 66634, "ELEMENT_SET_NO": 999, "REV_AT_EPOCH": 354, "BSTAR": -0.020978, "MEAN_MOTION_DOT": -0.02000487, "MEAN_MOTION_DDOT": 0}, "tle": {"line1": "1 66634U 25271T   25342.83335647 -.02000487  00000+0 -20978-1 0  9996", "line2": "2 66634  53.1591 206.0973 0001111  96.9451  55.7413 15.66969088  3541"}}, "geometry": {"type": "Point", "coordinates": [126.78448229098586, -52.458570697522276]}}, {"type": "Feature", "properties": {"norad_id": 66635, "name": "STARLINK-35955", "group": "last-30-days", "lat": -52.08277287081958, "lon": 129.84705090842522, "alt_km": 378.23200005550007, "timestamp": "2025-12-09T05:43:19.510541+00:00", "meta": {"OBJECT_NAME": "STARLINK-35955", "OBJECT_ID": "2025-271U", "EPOCH": "2025-12-08T20:00:01.999008", "MEAN_MOTION": 15.66965918, "ECCENTRICITY": 0.0001192, "INCLINATION": 53.1591, "RA_OF_ASC_NODE": 206.0936, "ARG_OF_PERICENTER": 98.8256, "MEAN_ANOMALY": 55.7782, "EPHEMERIS_TYPE": 0, "CLASSIFICATION_TYPE": "U", "NORAD_CAT_ID": 66635, "ELEMENT_SET_NO": 999, "REV_AT_EPOCH": 361, "BSTAR": -0.020908, "MEAN_MOTION_DOT": -0.01994424, "MEAN_MOTION_DDOT": 0}, "tle": {"line1": "1 66635U 25271U   25342.83335647 -.01994424  00000+0 -20908-1 0  9992", "line2": "2 66635  53.1591 206.0936 0001192  98.8256  55.7782 15.66965918  3619"}}, "geometry": {"type": "Point", "coordinates": [129.84705090842522, -52.08277287081958]}}, {"type": "Feature", "properties": {"norad_id": 66636, "name": "STARLINK-35968", "group": "last-30-days", "lat": -51.62933644939002, "lon": 132.85087836629995, "alt_km": 378.20379789789513, "timestamp": "2025-12-09T05:43:19.510551+00:00", "meta": {"OBJECT_NAME": "STARLINK-35968", "OBJECT_ID": "2025-271V", "EPOCH": "2025-12-08T20:00:01.999008", "MEAN_MOTION": 15.66963734, "ECCENTRICITY": 0.0001174, "INCLINATION": 53.1593, "RA_OF_ASC_NODE": 206.0894, "ARG_OF_PERICENTER": 98.5214, "MEAN_ANOMALY": 57.9998, "EPHEMERIS_TYPE": 0, "CLASSIFICATION_TYPE": "U", "NORAD_CAT_ID": 66636, "ELEMENT_SET_NO": 999, "REV_AT_EPOCH": 361, "BSTAR": -0.020873, "MEAN_MOTION_DOT": -0.01991331, "MEAN_MOTION_DDOT": 0}, "tle": {"line1": "1 66636U 25271V   25342.83335647 -.01991331  00000+0 -20873-1 0  9998", "line2": "2 66636  53.1593 206.0894 0001174  98.5214  57.9998 15.66963734  3613"}}, "geometry": {"type": "Point", "coordinates": [132.85087836629995, -51.62933644939002]}}]}